OBJECT B                
1 51825U 22019B   25212.94192358  .00022829  00000+0  53049-3 0  9994
2 51825  97.3823 290.1644 0009263 211.6190 148.4502 15.42308099189969
